{
  "type": "FeatureCollection",
  "features": [
    {
      "type": "Feature",
      "properties": {
        "norad_id": 31410,
        "name": "FENGYUN 1C DEB",
        "group": "fengyun-1c-debris",
        "lat": 33.80684248496452,
        "lon": -27.32134004192887,
        "alt_km": 805.4289278512606,
        "timestamp": "2025-12-11T05:00:26.590980+00:00",
        "meta_object_name": "FENGYUN 1C DEB",
        "meta_object_id": "1999-025BSW",
        "meta_epoch": "2025-12-10T10:10:24.605760",
        "meta_mean_motion": 14.44743605,
        "meta_eccentricity": 0.01105862,
        "meta_inclination": 98.8363,
        "meta_ra_of_asc_node": 145.8839,
        "meta_arg_of_pericenter": 293.651,
        "meta_mean_anomaly": 93.5214,
        "meta_ephemeris_type": 0,
        "meta_classification_type": "U",
        "meta_norad_cat_id": 31410,
        "meta_element_set_no": 999,
        "meta_rev_at_epoch": 97718,
        "meta_bstar": 0.0012581489,
        "meta_mean_motion_dot": 4.656e-05,
        "meta_mean_motion_ddot": 0,
        "tle_line1": "1 31410U 99025BSW 25344.42389590  .00004656  00000+0  12581-2 0  9991",
        "tle_line2": "2 31410  98.8363 145.8839 0110586 293.6510  93.5214 14.44743605977187"
      },
      "geometry": {
        "type": "Point",
        "coordinates": [
          -27.32134004192887,
          33.80684248496452
        ]
      }
    },
    {
      "type": "Feature",
      "properties": {
        "norad_id": 31411,
        "name": "FENGYUN 1C DEB",
        "group": "fengyun-1c-debris",
        "lat": -4.147778948133705,
        "lon": 47.134070885366846,
        "alt_km": 809.4564670415411,
        "timestamp": "2025-12-11T05:00:26.590990+00:00",
        "meta_object_name": "FENGYUN 1C DEB",
        "meta_object_id": "1999-025BSX",
        "meta_epoch": "2025-12-10T10:35:57.312384",
        "meta_mean_motion": 14.27980083,
        "meta_eccentricity": 0.01006223,
        "meta_inclination": 98.6693,
        "meta_ra_of_asc_node": 45.7388,
        "meta_arg_of_pericenter": 261.6101,
        "meta_mean_anomaly": 112.4364,
        "meta_ephemeris_type": 0,
        "meta_classification_type": "U",
        "meta_norad_cat_id": 31411,
        "meta_element_set_no": 999,
        "meta_rev_at_epoch": 94447,
        "meta_bstar": 0.00075860165,
        "meta_mean_motion_dot": 1.941e-05,
        "meta_mean_motion_ddot": 0,
        "tle_line1": "1 31411U 99025BSX 25344.44163556  .00001941  00000+0  75860-3 0  9990",
        "tle_line2": "2 31411  98.6693  45.7388 0100622 261.6101 112.4364 14.27980083944477"
      },
      "geometry": {
        "type": "Point",
        "coordinates": [
          47.134070885366846,
          -4.147778948133705
        ]
      }
    },
    {
      "type": "Feature",
      "properties": {
        "norad_id": 31412,
        "name": "FENGYUN 1C DEB",
        "group": "fengyun-1c-debris",
        "lat": 73.75348862176524,
        "lon": -101.8887055756669,
        "alt_km": 859.3636210595787,
        "timestamp": "2025-12-11T05:00:26.591000+00:00",
        "meta_object_name": "FENGYUN 1C DEB",
        "meta_object_id": "1999-025BSY",
        "meta_epoch": "2025-12-08T06:48:54.761760",
        "meta_mean_motion": 14.09790049,
        "meta_eccentricity": 0.00838716,
        "meta_inclination": 98.5478,
        "meta_ra_of_asc_node": 286.4049,
        "meta_arg_of_pericenter": 347.8891,
        "meta_mean_anomaly": 12.0263,
        "meta_ephemeris_type": 0,
        "meta_classification_type": "U",
        "meta_norad_cat_id": 31412,
        "meta_element_set_no": 999,
        "meta_rev_at_epoch": 60929,
        "meta_bstar": 0.0032161127,
        "meta_mean_motion_dot": 5.801e-05,
        "meta_mean_motion_ddot": 0,
        "tle_line1": "1 31412U 99025BSY 25342.28396715  .00005801  00000+0  32161-2 0  9991",
        "tle_line2": "2 31412  98.5478 286.4049 0083871 347.8891  12.0263 14.09790049609297"
      },
      "geometry": {
        "type": "Point",
        "coordinates": [
          -101.8887055756669,
          73.75348862176524
        ]
      }
    },
    {
      "type": "Feature",
      "properties": {
        "norad_id": 31415,
        "name": "FENGYUN 1C DEB",
        "group": "fengyun-1c-debris",
        "lat": 4.956705497873552,
        "lon": 117.93055903583775,
        "alt_km": 796.8458113538336,
        "timestamp": "2025-12-11T05:00:26.591010+00:00",
        "meta_object_name": "FENGYUN 1C DEB",
        "meta_object_id": "1999-025BTB",
        "meta_epoch": "2025-11-30T02:58:22.044864",
        "meta_mean_motion": 14.30472505,
        "meta_eccentricity": 0.00637436,
        "meta_inclination": 99.637,
        "meta_ra_of_asc_node": 284.8171,
        "meta_arg_of_pericenter": 110.0761,
        "meta_mean_anomaly": 250.7294,
        "meta_ephemeris_type": 0,
        "meta_classification_type": "U",
        "meta_norad_cat_id": 31415,
        "meta_element_set_no": 999,
        "meta_rev_at_epoch": 62650,
        "meta_bstar": 0.0013587885,
        "meta_mean_motion_dot": 3.567e-05,
        "meta_mean_motion_ddot": 0,
        "tle_line1": "1 31415U 99025BTB 25334.12386626  .00003567  00000+0  13588-2 0  9997",
        "tle_line2": "2 31415  99.6370 284.8171 0063743 110.0761 250.7294 14.30472505626509"
      },
      "geometry": {
        "type": "Point",
        "coordinates": [
          117.93055903583775,
          4.956705497873552
        ]
      }
    },
    {
      "type": "Feature",
      "properties": {
        "norad_id": 31416,
        "name": "FENGYUN 1C DEB",
        "group": "fengyun-1c-debris",
        "lat": 20.640932419880635,
        "lon": -141.20720692232496,
        "alt_km": 765.9609004971053,
        "timestamp": "2025-12-11T05:00:26.591019+00:00",
        "meta_object_name": "FENGYUN 1C DEB",
        "meta_object_id": "1999-025BTC",
        "meta_epoch": "2025-12-08T09:35:02.240736",
        "meta_mean_motion": 14.40658556,
        "meta_eccentricity": 0.0132845,
        "meta_inclination": 99.0518,
        "meta_ra_of_asc_node": 32.3785,
        "meta_arg_of_pericenter": 263.9287,
        "meta_mean_anomaly": 94.6749,
        "meta_ephemeris_type": 0,
        "meta_classification_type": "U",
        "meta_norad_cat_id": 31416,
        "meta_element_set_no": 999,
        "meta_rev_at_epoch": 65457,
        "meta_bstar": 0.00054277617,
        "meta_mean_motion_dot": 1.868e-05,
        "meta_mean_motion_ddot": 0,
        "tle_line1": "1 31416U 99025BTC 25342.39933149  .00001868  00000+0  54278-3 0  9998",
        "tle_line2": "2 31416  99.0518  32.3785 0132845 263.9287  94.6749 14.40658556654577"
      },
      "geometry": {
        "type": "Point",
        "coordinates": [
          -141.20720692232496,
          20.640932419880635
        ]
      }
    },
    {
      "type": "Feature",
      "properties": {
        "norad_id": 31420,
        "name": "FENGYUN 1C DEB",
        "group": "fengyun-1c-debris",
        "lat": 5.109580460229357,
        "lon": -117.34720700277258,
        "alt_km": 675.8304950998836,
        "timestamp": "2025-12-11T05:00:26.591029+00:00",
        "meta_object_name": "FENGYUN 1C DEB",
        "meta_object_id": "1999-025BTG",
        "meta_epoch": "2025-12-09T23:16:07.254624",
        "meta_mean_motion": 14.40788627,
        "meta_eccentricity": 0.01360186,
        "meta_inclination": 97.5584,
        "meta_ra_of_asc_node": 242.237,
        "meta_arg_of_pericenter": 336.6893,
        "meta_mean_anomaly": 84.4681,
        "meta_ephemeris_type": 0,
        "meta_classification_type": "U",
        "meta_norad_cat_id": 31420,
        "meta_element_set_no": 999,
        "meta_rev_at_epoch": 64954,
        "meta_bstar": 0.0010308878,
        "meta_mean_motion_dot": 3.642e-05,
        "meta_mean_motion_ddot": 0,
        "tle_line1": "1 31420U 99025BTG 25343.96952841  .00003642  00000+0  10309-2 0  9995",
        "tle_line2": "2 31420  97.5584 242.2370 0136018 336.6893  84.4681 14.40788627649543"
      },
      "geometry": {
        "type": "Point",
        "coordinates": [
          -117.34720700277258,
          5.109580460229357
        ]
      }
    },
    {
      "type": "Feature",
      "properties": {
        "norad_id": 31422,
        "name": "FENGYUN 1C DEB",
        "group": "fengyun-1c-debris",
        "lat": 79.46484607029586,
        "lon": -73.80271352254054,
        "alt_km": 871.7924965701923,
        "timestamp": "2025-12-11T05:00:26.591039+00:00",
        "meta_object_name": "FENGYUN 1C DEB",
        "meta_object_id": "1999-025BTJ",
        "meta_epoch": "2025-12-08T05:20:26.078784",
        "meta_mean_motion": 14.09612791,
        "meta_eccentricity": 0.00340685,
        "meta_inclination": 98.7601,
        "meta_ra_of_asc_node": 339.2993,
        "meta_arg_of_pericenter": 313.8133,
        "meta_mean_anomaly": 105.1085,
        "meta_ephemeris_type": 0,
        "meta_classification_type": "U",
        "meta_norad_cat_id": 31422,
        "meta_element_set_no": 999,
        "meta_rev_at_epoch": 95598,
        "meta_bstar": 0.00069545976,
        "meta_mean_motion_dot": 1.181e-05,
        "meta_mean_motion_ddot": 0,
        "tle_line1": "1 31422U 99025BTJ 25342.22252406  .00001181  00000+0  69546-3 0  9999",
        "tle_line2": "2 31422  98.7601 339.2993 0034068 313.8133 105.1085 14.09612791955982"
      },
      "geometry": {
        "type": "Point",
        "coordinates": [
          -73.80271352254054,
          79.46484607029586
        ]
      }
    }
  ]
}